{
  "type": "FeatureCollection",
  "features": [
    {
      "type": "Feature",
      "properties": {
        "norad_id": 40889,
        "name": "GSAT0205 (GALILEO 9)",
        "group": "galileo",
        "lat": 50.37202108835722,
        "lon": -11.32372004350455,
        "alt_km": 23209.216566215648,
        "timestamp": "2025-12-24T14:43:29.264598+00:00",
        "meta_object_name": "GSAT0205 (GALILEO 9)",
        "meta_object_id": "2015-045A",
        "meta_epoch": "2025-12-23T06:16:38.782272",
        "meta_mean_motion": 1.70473104,
        "meta_eccentricity": 0.00062228,
        "meta_inclination": 55.0001,
        "meta_ra_of_asc_node": 226.4673,
        "meta_arg_of_pericenter": 42.5636,
        "meta_mean_anomaly": 317.5856,
        "meta_ephemeris_type": 0,
        "meta_classification_type": "U",
        "meta_norad_cat_id": 40889,
        "meta_element_set_no": 999,
        "meta_rev_at_epoch": 6401,
        "meta_bstar": 0,
        "meta_mean_motion_dot": 7.3e-07,
        "meta_mean_motion_ddot": 0,
        "tle_line1": "1 40889U 15045A   25357.26155998  .00000073  00000+0  00000+0 0  9999",
        "tle_line2": "2 40889  55.0001 226.4673 0006222  42.5636 317.5856  1.70473104 64013"
      },
      "geometry": {
        "type": "Point",
        "coordinates": [
          -11.32372004350455,
          50.37202108835722
        ]
      }
    },
    {
      "type": "Feature",
      "properties": {
        "norad_id": 40890,
        "name": "GSAT0206 (GALILEO 10)",
        "group": "galileo",
        "lat": -20.786002601335742,
        "lon": -148.98023303015327,
        "alt_km": 23220.309612675206,
        "timestamp": "2025-12-24T14:43:29.264629+00:00",
        "meta_object_name": "GSAT0206 (GALILEO 10)",
        "meta_object_id": "2015-045B",
        "meta_epoch": "2025-12-24T01:39:01.990656",
        "meta_mean_motion": 1.70473231,
        "meta_eccentricity": 0.00040969,
        "meta_inclination": 54.9989,
        "meta_ra_of_asc_node": 226.4401,
        "meta_arg_of_pericenter": 41.1407,
        "meta_mean_anomaly": 318.987,
        "meta_ephemeris_type": 0,
        "meta_classification_type": "U",
        "meta_norad_cat_id": 40890,
        "meta_element_set_no": 999,
        "meta_rev_at_epoch": 6405,
        "meta_bstar": 0,
        "meta_mean_motion_dot": 7.1e-07,
        "meta_mean_motion_ddot": 0,
        "tle_line1": "1 40890U 15045B   25358.06877304  .00000071  00000+0  00000+0 0  9990",
        "tle_line2": "2 40890  54.9989 226.4401 0004096  41.1407 318.9870  1.70473231 64051"
      },
      "geometry": {
        "type": "Point",
        "coordinates": [
          -148.98023303015327,
          -20.786002601335742
        ]
      }
    },
    {
      "type": "Feature",
      "properties": {
        "norad_id": 41174,
        "name": "GSAT0209 (GALILEO 12)",
        "group": "galileo",
        "lat": -40.0948765382632,
        "lon": -38.95452568549994,
        "alt_km": 23229.66250038594,
        "timestamp": "2025-12-24T14:43:29.264643+00:00",
        "meta_object_name": "GSAT0209 (GALILEO 12)",
        "meta_object_id": "2015-079A",
        "meta_epoch": "2025-12-21T21:22:17.332896",
        "meta_mean_motion": 1.70474556,
        "meta_eccentricity": 0.00025231,
        "meta_inclination": 55.7178,
        "meta_ra_of_asc_node": 106.13,
        "meta_arg_of_pericenter": 342.7574,
        "meta_mean_anomaly": 17.2091,
        "meta_ephemeris_type": 0,
        "meta_classification_type": "U",
        "meta_norad_cat_id": 41174,
        "meta_element_set_no": 999,
        "meta_rev_at_epoch": 6175,
        "meta_bstar": 0,
        "meta_mean_motion_dot": 5e-08,
        "meta_mean_motion_ddot": 0,
        "tle_line1": "1 41174U 15079A   25355.89047839  .00000005  00000+0  00000+0 0  9990",
        "tle_line2": "2 41174  55.7178 106.1300 0002523 342.7574  17.2091  1.70474556 61755"
      },
      "geometry": {
        "type": "Point",
        "coordinates": [
          -38.95452568549994,
          -40.0948765382632
        ]
      }
    },
    {
      "type": "Feature",
      "properties": {
        "norad_id": 41175,
        "name": "GSAT0208 (GALILEO 11)",
        "group": "galileo",
        "lat": 55.26523560069906,
        "lon": -153.18425287613073,
        "alt_km": 23217.14233122391,
        "timestamp": "2025-12-24T14:43:29.264655+00:00",
        "meta_object_name": "GSAT0208 (GALILEO 11)",
        "meta_object_id": "2015-079B",
        "meta_epoch": "2025-12-23T06:48:42.697728",
        "meta_mean_motion": 1.7047421,
        "meta_eccentricity": 0.0001871,
        "meta_inclination": 55.7171,
        "meta_ra_of_asc_node": 106.0888,
        "meta_arg_of_pericenter": 351.9973,
        "meta_mean_anomaly": 7.984,
        "meta_ephemeris_type": 0,
        "meta_classification_type": "U",
        "meta_norad_cat_id": 41175,
        "meta_element_set_no": 999,
        "meta_rev_at_epoch": 6219,
        "meta_bstar": 0,
        "meta_mean_motion_dot": 1.1e-07,
        "meta_mean_motion_ddot": 0,
        "tle_line1": "1 41175U 15079B   25357.28382752  .00000011  00000+0  00000+0 0  9999",
        "tle_line2": "2 41175  55.7171 106.0888 0001871 351.9973   7.9840  1.70474210 62193"
      },
      "geometry": {
        "type": "Point",
        "coordinates": [
          -153.18425287613073,
          55.26523560069906
        ]
      }
    },
    {
      "type": "Feature",
      "properties": {
        "norad_id": 41549,
        "name": "GSAT0211 (GALILEO 14)",
        "group": "galileo",
        "lat": 16.228461242665027,
        "lon": -121.78948400977661,
        "alt_km": 23208.273607373754,
        "timestamp": "2025-12-24T14:43:29.264666+00:00",
        "meta_object_name": "GSAT0211 (GALILEO 14)",
        "meta_object_id": "2016-030A",
        "meta_epoch": "2025-12-22T05:38:05.943264",
        "meta_mean_motion": 1.70473275,
        "meta_eccentricity": 0.00040882,
        "meta_inclination": 55.1491,
        "meta_ra_of_asc_node": 226.562,
        "meta_arg_of_pericenter": 17.521,
        "meta_mean_anomaly": 342.5988,
        "meta_ephemeris_type": 0,
        "meta_classification_type": "U",
        "meta_norad_cat_id": 41549,
        "meta_element_set_no": 999,
        "meta_rev_at_epoch": 5965,
        "meta_bstar": 0,
        "meta_mean_motion_dot": 7.3e-07,
        "meta_mean_motion_ddot": 0,
        "tle_line1": "1 41549U 16030A   25356.23479101  .00000073  00000+0  00000+0 0  9999",
        "tle_line2": "2 41549  55.1491 226.5620 0004088  17.5210 342.5988  1.70473275 59659"
      },
      "geometry": {
        "type": "Point",
        "coordinates": [
          -121.78948400977661,
          16.228461242665027
        ]
      }
    },
    {
      "type": "Feature",
      "properties": {
        "norad_id": 41550,
        "name": "GSAT0210 (GALILEO 13)",
        "group": "galileo",
        "lat": -33.27800643791973,
        "lon": 73.71795559029921,
        "alt_km": 23225.174860635,
        "timestamp": "2025-12-24T14:43:29.264686+00:00",
        "meta_object_name": "GSAT0210 (GALILEO 13)",
        "meta_object_id": "2016-030B",
        "meta_epoch": "2025-12-23T01:53:26.064096",
        "meta_mean_motion": 1.704734,
        "meta_eccentricity": 5.527e-05,
        "meta_inclination": 55.1484,
        "meta_ra_of_asc_node": 226.5368,
        "meta_arg_of_pericenter": 180.205,
        "meta_mean_anomaly": 179.8969,
        "meta_ephemeris_type": 0,
        "meta_classification_type": "U",
        "meta_norad_cat_id": 41550,
        "meta_element_set_no": 999,
        "meta_rev_at_epoch": 5966,
        "meta_bstar": 0,
        "meta_mean_motion_dot": 7.3e-07,
        "meta_mean_motion_ddot": 0,
        "tle_line1": "1 41550U 16030B   25357.07877389  .00000073  00000+0  00000+0 0  9994",
        "tle_line2": "2 41550  55.1484 226.5368 0000552 180.2050 179.8969  1.70473400 59665"
      },
      "geometry": {
        "type": "Point",
        "coordinates": [
          73.71795559029921,
          -33.27800643791973
        ]
      }
    },
    {
      "type": "Feature",
      "properties": {
        "norad_id": 41859,
        "name": "GSAT0207 (GALILEO 15)",
        "group": "galileo",
        "lat": 39.90651372710745,
        "lon": 141.14109537616454,
        "alt_km": 23217.765529982942,
        "timestamp": "2025-12-24T14:43:29.264705+00:00",
        "meta_object_name": "GSAT0207 (GALILEO 15)",
        "meta_object_id": "2016-069A",
        "meta_epoch": "2025-12-22T04:24:39.710016",
        "meta_mean_motion": 1.70474442,
        "meta_eccentricity": 0.00024396,
        "meta_inclination": 55.3874,
        "meta_ra_of_asc_node": 105.9888,
        "meta_arg_of_pericenter": 317.4324,
        "meta_mean_anomaly": 42.5257,
        "meta_ephemeris_type": 0,
        "meta_classification_type": "U",
        "meta_norad_cat_id": 41859,
        "meta_element_set_no": 999,
        "meta_rev_at_epoch": 5638,
        "meta_bstar": 0,
        "meta_mean_motion_dot": 6e-08,
        "meta_mean_motion_ddot": 0,
        "tle_line1": "1 41859U 16069A   25356.18379294  .00000006  00000+0  00000+0 0  9997",
        "tle_line2": "2 41859  55.3874 105.9888 0002439 317.4324  42.5257  1.70474442 56382"
      },
      "geometry": {
        "type": "Point",
        "coordinates": [
          141.14109537616454,
          39.90651372710745
        ]
      }
    }
  ]
}